{
  "type": "FeatureCollection",
  "features": [
    {
      "type": "Feature",
      "properties": {
        "norad_id": 36036,
        "name": "SMOS",
        "group": "resource",
        "lat": -38.566574067090826,
        "lon": 171.65413871286708,
        "alt_km": 765.8347349942896,
        "timestamp": "2025-12-05T16:54:14.326584+00:00",
        "meta_object_name": "SMOS",
        "meta_object_id": "2009-059A",
        "meta_epoch": "2025-12-05T00:24:22.906656",
        "meta_mean_motion": 14.39791838,
        "meta_eccentricity": 0.0001007,
        "meta_inclination": 98.4384,
        "meta_ra_of_asc_node": 164.1795,
        "meta_arg_of_pericenter": 72.0682,
        "meta_mean_anomaly": 288.0616,
        "meta_ephemeris_type": 0,
        "meta_classification_type": "U",
        "meta_norad_cat_id": 36036,
        "meta_element_set_no": 999,
        "meta_rev_at_epoch": 84551,
        "meta_bstar": 0.00026241046,
        "meta_mean_motion_dot": 7.79e-06,
        "meta_mean_motion_ddot": 0,
        "tle_line1": "1 36036U 09059A   25339.01693179  .00000779  00000+0  26241-3 0  9999",
        "tle_line2": "2 36036  98.4384 164.1795 0001007  72.0682 288.0616 14.39791838845519"
      },
      "geometry": {
        "type": "Point",
        "coordinates": [
          171.65413871286708,
          -38.566574067090826
        ]
      }
    },
    {
      "type": "Feature",
      "properties": {
        "norad_id": 36110,
        "name": "YAOGAN-7",
        "group": "resource",
        "lat": -80.59858167112695,
        "lon": -17.01364496890722,
        "alt_km": 631.1558913164163,
        "timestamp": "2025-12-05T16:54:14.326593+00:00",
        "meta_object_name": "YAOGAN-7",
        "meta_object_id": "2009-069A",
        "meta_epoch": "2025-12-05T04:19:49.035360",
        "meta_mean_motion": 14.77714891,
        "meta_eccentricity": 0.00236966,
        "meta_inclination": 98.0303,
        "meta_ra_of_asc_node": 220.9642,
        "meta_arg_of_pericenter": 306.8759,
        "meta_mean_anomaly": 53.0279,
        "meta_ephemeris_type": 0,
        "meta_classification_type": "U",
        "meta_norad_cat_id": 36110,
        "meta_element_set_no": 999,
        "meta_rev_at_epoch": 86097,
        "meta_bstar": 0.0001935316,
        "meta_mean_motion_dot": 1.34e-05,
        "meta_mean_motion_ddot": 0,
        "tle_line1": "1 36110U 09069A   25339.18042865  .00001340  00000+0  19353-3 0  9992",
        "tle_line2": "2 36110  98.0303 220.9642 0023696 306.8759  53.0279 14.77714891860970"
      },
      "geometry": {
        "type": "Point",
        "coordinates": [
          -17.01364496890722,
          -80.59858167112695
        ]
      }
    },
    {
      "type": "Feature",
      "properties": {
        "norad_id": 36605,
        "name": "TANDEM-X",
        "group": "resource",
        "lat": -3.7185302990924542,
        "lon": 164.70132008448525,
        "alt_km": 511.9997491587292,
        "timestamp": "2025-12-05T16:54:14.326602+00:00",
        "meta_object_name": "TANDEM-X",
        "meta_object_id": "2010-030A",
        "meta_epoch": "2025-12-04T14:48:17.883360",
        "meta_mean_motion": 15.19148899,
        "meta_eccentricity": 0.00018635,
        "meta_inclination": 97.4452,
        "meta_ra_of_asc_node": 344.1166,
        "meta_arg_of_pericenter": 95.4078,
        "meta_mean_anomaly": 264.7369,
        "meta_ephemeris_type": 0,
        "meta_classification_type": "U",
        "meta_norad_cat_id": 36605,
        "meta_element_set_no": 999,
        "meta_rev_at_epoch": 85710,
        "meta_bstar": 0.00011882384,
        "meta_mean_motion_dot": 2.429e-05,
        "meta_mean_motion_ddot": 0,
        "tle_line1": "1 36605U 10030A   25338.61687365  .00002429  00000+0  11882-3 0  9996",
        "tle_line2": "2 36605  97.4452 344.1166 0001863  95.4078 264.7369 15.19148899857102"
      },
      "geometry": {
        "type": "Point",
        "coordinates": [
          164.70132008448525,
          -3.7185302990924542
        ]
      }
    },
    {
      "type": "Feature",
      "properties": {
        "norad_id": 36795,
        "name": "CARTOSAT-2B",
        "group": "resource",
        "lat": 13.210025052558795,
        "lon": -149.1964043262849,
        "alt_km": 631.0122237452833,
        "timestamp": "2025-12-05T16:54:14.326611+00:00",
        "meta_object_name": "CARTOSAT-2B",
        "meta_object_id": "2010-035A",
        "meta_epoch": "2025-12-05T06:24:38.686752",
        "meta_mean_motion": 14.78771548,
        "meta_eccentricity": 0.0012898,
        "meta_inclination": 97.7864,
        "meta_ra_of_asc_node": 28.5399,
        "meta_arg_of_pericenter": 99.5549,
        "meta_mean_anomaly": 260.712,
        "meta_ephemeris_type": 0,
        "meta_classification_type": "U",
        "meta_norad_cat_id": 36795,
        "meta_element_set_no": 999,
        "meta_rev_at_epoch": 83119,
        "meta_bstar": 0.00021079409,
        "meta_mean_motion_dot": 1.501e-05,
        "meta_mean_motion_ddot": 0,
        "tle_line1": "1 36795U 10035A   25339.26711443  .00001501  00000+0  21079-3 0  9997",
        "tle_line2": "2 36795  97.7864  28.5399 0012898  99.5549 260.7120 14.78771548831190"
      },
      "geometry": {
        "type": "Point",
        "coordinates": [
          -149.1964043262849,
          13.210025052558795
        ]
      }
    },
    {
      "type": "Feature",
      "properties": {
        "norad_id": 36834,
        "name": "YAOGAN-10",
        "group": "resource",
        "lat": 77.73999043450202,
        "lon": -140.61808040182825,
        "alt_km": 606.6360393307086,
        "timestamp": "2025-12-05T16:54:14.326620+00:00",
        "meta_object_name": "YAOGAN-10",
        "meta_object_id": "2010-038A",
        "meta_epoch": "2025-12-05T08:25:03.073728",
        "meta_mean_motion": 14.84563889,
        "meta_eccentricity": 0.00015191,
        "meta_inclination": 97.9143,
        "meta_ra_of_asc_node": 359.2271,
        "meta_arg_of_pericenter": 85.3891,
        "meta_mean_anomaly": 285.3275,
        "meta_ephemeris_type": 0,
        "meta_classification_type": "U",
        "meta_norad_cat_id": 36834,
        "meta_element_set_no": 999,
        "meta_rev_at_epoch": 82844,
        "meta_bstar": 0.00039292069,
        "meta_mean_motion_dot": 3.263e-05,
        "meta_mean_motion_ddot": 0,
        "tle_line1": "1 36834U 10038A   25339.35073002  .00003263  00000+0  39292-3 0  9999",
        "tle_line2": "2 36834  97.9143 359.2271 0001519  85.3891 285.3275 14.84563889828442"
      },
      "geometry": {
        "type": "Point",
        "coordinates": [
          -140.61808040182825,
          77.73999043450202
        ]
      }
    },
    {
      "type": "Feature",
      "properties": {
        "norad_id": 37216,
        "name": "COSMO-SKYMED 4",
        "group": "resource",
        "lat": 80.03217174530738,
        "lon": 109.12186504773692,
        "alt_km": 614.1747474396334,
        "timestamp": "2025-12-05T16:54:14.326629+00:00",
        "meta_object_name": "COSMO-SKYMED 4",
        "meta_object_id": "2010-060A",
        "meta_epoch": "2025-12-05T06:48:19.766304",
        "meta_mean_motion": 14.82154316,
        "meta_eccentricity": 0.00013786,
        "meta_inclination": 97.8808,
        "meta_ra_of_asc_node": 160.7192,
        "meta_arg_of_pericenter": 82.9921,
        "meta_mean_anomaly": 277.1449,
        "meta_ephemeris_type": 0,
        "meta_classification_type": "U",
        "meta_norad_cat_id": 37216,
        "meta_element_set_no": 999,
        "meta_rev_at_epoch": 81584,
        "meta_bstar": 0.00014271803,
        "meta_mean_motion_dot": 1.084e-05,
        "meta_mean_motion_ddot": 0,
        "tle_line1": "1 37216U 10060A   25339.28356211  .00001084  00000+0  14272-3 0  9997",
        "tle_line2": "2 37216  97.8808 160.7192 0001378  82.9921 277.1449 14.82154316815842"
      },
      "geometry": {
        "type": "Point",
        "coordinates": [
          109.12186504773692,
          80.03217174530738
        ]
      }
    },
    {
      "type": "Feature",
      "properties": {
        "norad_id": 37387,
        "name": "RESOURCESAT-2",
        "group": "resource",
        "lat": 39.087109269381536,
        "lon": -129.49325375129695,
        "alt_km": 816.0813043925773,
        "timestamp": "2025-12-05T16:54:14.326639+00:00",
        "meta_object_name": "RESOURCESAT-2",
        "meta_object_id": "2011-015A",
        "meta_epoch": "2025-12-05T06:06:42.585984",
        "meta_mean_motion": 14.21592689,
        "meta_eccentricity": 0.00067207,
        "meta_inclination": 98.7887,
        "meta_ra_of_asc_node": 42.8398,
        "meta_arg_of_pericenter": 61.9166,
        "meta_mean_anomaly": 298.269,
        "meta_ephemeris_type": 0,
        "meta_classification_type": "U",
        "meta_norad_cat_id": 37387,
        "meta_element_set_no": 999,
        "meta_rev_at_epoch": 75862,
        "meta_bstar": 0.00017564407,
        "meta_mean_motion_dot": 3.41e-06,
        "meta_mean_motion_ddot": 0,
        "tle_line1": "1 37387U 11015A   25339.25465956  .00000341  00000+0  17564-3 0  9993",
        "tle_line2": "2 37387  98.7887  42.8398 0006720  61.9166 298.2690 14.21592689758626"
      },
      "geometry": {
        "type": "Point",
        "coordinates": [
          -129.49325375129695,
          39.087109269381536
        ]
      }
    }
  ]
}